{
  "type": "FeatureCollection",
  "features": [
    {
      "type": "Feature",
      "properties": {
        "norad_id": 58655,
        "name": "BEIDOU-3 M26 (C48)",
        "group": "beidou",
        "lat": 20.277287991726983,
        "lon": 82.95787454716461,
        "alt_km": 21532.334432965083,
        "timestamp": "2025-12-21T09:37:22.920275+00:00",
        "meta_object_name": "BEIDOU-3 M26 (C48)",
        "meta_object_id": "2023-207B",
        "meta_epoch": "2025-12-19T05:11:10.015296",
        "meta_mean_motion": 1.86231346,
        "meta_eccentricity": 0.0004042,
        "meta_inclination": 55.592,
        "meta_ra_of_asc_node": 68.3684,
        "meta_arg_of_pericenter": 258.4158,
        "meta_mean_anomaly": 101.5732,
        "meta_ephemeris_type": 0,
        "meta_classification_type": "U",
        "meta_norad_cat_id": 58655,
        "meta_element_set_no": 999,
        "meta_rev_at_epoch": 1347,
        "meta_bstar": 0,
        "meta_mean_motion_dot": -5.7e-07,
        "meta_mean_motion_ddot": 0,
        "tle_line1": "1 58655U 23207B   25353.21608814 -.00000057  00000+0  00000+0 0  9992",
        "tle_line2": "2 58655  55.5920  68.3684 0004042 258.4158 101.5732  1.86231346 13473"
      },
      "geometry": {
        "type": "Point",
        "coordinates": [
          82.95787454716461,
          20.277287991726983
        ]
      }
    },
    {
      "type": "Feature",
      "properties": {
        "norad_id": 61186,
        "name": "BEIDOU-3 M25 (C47)",
        "group": "beidou",
        "lat": 30.333589478340006,
        "lon": 103.86831059659715,
        "alt_km": 21538.553624538305,
        "timestamp": "2025-12-21T09:37:22.920286+00:00",
        "meta_object_name": "BEIDOU-3 M25 (C47)",
        "meta_object_id": "2024-168B",
        "meta_epoch": "2025-12-20T22:07:53.377248",
        "meta_mean_motion": 1.86230245,
        "meta_eccentricity": 0.0005454,
        "meta_inclination": 54.6348,
        "meta_ra_of_asc_node": 308.4372,
        "meta_arg_of_pericenter": 299.6064,
        "meta_mean_anomaly": 241.0883,
        "meta_ephemeris_type": 0,
        "meta_classification_type": "U",
        "meta_norad_cat_id": 61186,
        "meta_element_set_no": 999,
        "meta_rev_at_epoch": 846,
        "meta_bstar": 0,
        "meta_mean_motion_dot": -6.6e-07,
        "meta_mean_motion_ddot": 0,
        "tle_line1": "1 61186U 24168B   25354.92214557 -.00000066  00000+0  00000+0 0  9998",
        "tle_line2": "2 61186  54.6348 308.4372 0005454 299.6064 241.0883  1.86230245  8460"
      },
      "geometry": {
        "type": "Point",
        "coordinates": [
          103.86831059659715,
          30.333589478340006
        ]
      }
    },
    {
      "type": "Feature",
      "properties": {
        "norad_id": 61187,
        "name": "BEIDOU-3 M27 (C49)",
        "group": "beidou",
        "lat": -54.09820700948538,
        "lon": -130.20856218880687,
        "alt_km": 21530.740159050052,
        "timestamp": "2025-12-21T09:37:22.920297+00:00",
        "meta_object_name": "BEIDOU-3 M27 (C49)",
        "meta_object_id": "2024-168C",
        "meta_epoch": "2025-12-21T03:52:51.964320",
        "meta_mean_motion": 1.86230388,
        "meta_eccentricity": 0.0002532,
        "meta_inclination": 54.6301,
        "meta_ra_of_asc_node": 308.4125,
        "meta_arg_of_pericenter": 340.0564,
        "meta_mean_anomaly": 136.2023,
        "meta_ephemeris_type": 0,
        "meta_classification_type": "U",
        "meta_norad_cat_id": 61187,
        "meta_element_set_no": 999,
        "meta_rev_at_epoch": 594,
        "meta_bstar": 0,
        "meta_mean_motion_dot": -6.4e-07,
        "meta_mean_motion_ddot": 0,
        "tle_line1": "1 61187U 24168C   25355.16171255 -.00000064  00000+0  00000+0 0  9991",
        "tle_line2": "2 61187  54.6301 308.4125 0002532 340.0564 136.2023  1.86230388  5945"
      },
      "geometry": {
        "type": "Point",
        "coordinates": [
          -130.20856218880687,
          -54.09820700948538
        ]
      }
    }
  ]
}